STARLINK-31846          
1 60126U 24118P   24191.58334491 -.01768680  00000+0 -14354-1 0  9990
2 60126  53.1656 341.7503 0000960  70.2036  17.9199 15.73186149  3564
STARLINK-31840          
1 60127U 24118Q   24191.58334491 -.01767819  00000+0 -14346-1 0  9995
2 60127  53.1642 341.7458 0001026  49.5740  40.4643 15.73185428  3490
STARLINK-31813          
1 60128U 24118R   24191.58334491 -.01767517  00000+0 -14344-1 0  9999
2 60128  53.1641 341.7419 0000940  65.1524  26.8033 15.73185090  3503
STARLINK-31845          
1 60129U 24118S   24191.58334491 -.01761854  00000+0 -14296-1 0  9994
2 60129  53.1637 341.7383 0000565  89.7937   4.0794 15.73181880  3507
STARLINK-31838          
1 60130U 24118T   24191.58334491 -.02365322  00000+0 -19151-1 0  9992
2 60130  53.1630 341.7306 0001148 124.0689 333.4711 15.73696081  3492
STARLINK-31785          
1 60131U 24118U   24189.91667824 -.00908838  00000+0 -65058-2 0  9997
2 60131  53.1671 350.0028 0001045  55.5896 310.6538 15.75543478  3246
STARLINK-31792          
1 60132U 24118V   24191.58856806 -.00316090  00000+0 -12007-2 0  9993
2 60132  53.1668 341.2263 0001136 149.9058 210.2033 15.87592221  2455
GOES-U                  
1 60133U 24119A   24191.45675154 -.00000102  00000+0  00000+0 0  9996
2 60133   0.1252 264.6898 0045159 189.4527 231.7996  1.01349864   225
FALCON HEAVY R/B        
1 60134U 24119B   24191.36275894 -.00000114  00000+0  00000+0 0  9997
2 60134   4.3530  95.0508 3015215 180.4720 178.8661  1.51715645   212
STARLINK-32043          
1 60135U 24120A   24191.58334491 -.00887371  00000+0 -34867-2 0  9993
2 60135  53.1493 279.5896 0000850  71.6066 197.0078 15.88225510  2930
STARLINK-32112          
1 60136U 24120B   24191.58334491 -.00886331  00000+0 -34774-2 0  9996
2 60136  53.1490 279.5865 0000809  87.0737 183.1274 15.88253259  3165
STARLINK-32050          
1 60137U 24120C   24191.58334491 -.00894285  00000+0 -35076-2 0  9990
2 60137  53.1493 279.5809 0000773  81.8757 190.9820 15.88277509  2774
STARLINK-32025          
1 60138U 24120D   24191.58334491 -.00902658  00000+0 -35350-2 0  9990
2 60138  53.1491 279.5709 0000993  71.3250 206.3545 15.88325281  2887
STARLINK-31867          
1 60139U 24120E   24191.58334491 -.00899272  00000+0 -35250-2 0  9997
2 60139  53.1494 279.5758 0000749  79.7568 195.5954 15.88301308  2931
STARLINK-31694          
1 60140U 24120F   24191.58334491 -.00906312  00000+0 -35464-2 0  9990
2 60140  53.1491 279.5666 0000731  78.1930 201.5387 15.88352264  3155
STARLINK-32036          
1 60141U 24120G   24191.58334491 -.00907755  00000+0 -35475-2 0  9995
2 60141  53.1493 279.5630 0000813  76.3400 205.1544 15.88380292  3159
STARLINK-32031          
1 60142U 24120H   24191.58334491 -.00911727  00000+0 -35603-2 0  9993
2 60142  53.1490 279.5581 0000791  69.5785 214.2200 15.88404750  3164
STARLINK-32027          
1 60143U 24120J   24191.58334491 -.00997730  30894-3 -27283-2 0  9995
2 60143  53.1490 279.4635 0001037  65.3761 264.0238 15.93385429  3156
STARLINK-32033          
1 60144U 24120K   24191.58334491 -.00920416  00000+0 -35892-2 0  9990
2 60144  53.1493 279.5483 0000683  82.0600 206.4968 15.88453425  2937
STARLINK-32029          
1 60145U 24120L   24191.58334491 -.00925193  00000+0 -36055-2 0  9990
2 60145  53.1492 279.5432 0000712  84.7670 206.2522 15.88476920  2995
STARLINK-32127          
1 60146U 24120M   24191.58334491 -.00927433  00000+0 -36102-2 0  9993
2 60146  53.1491 279.5395 0000722  84.8897 207.8856 15.88504082  2938
STARLINK-32019          
1 60147U 24120N   24191.58334491 -.00933165  00000+0 -36309-2 0  9992
2 60147  53.1490 279.5340 0000675  80.4241 214.9744 15.88526445  2998
STARLINK-32021          
1 60148U 24120P   24191.58334491 -.00936560  00000+0 -36411-2 0  9999
2 60148  53.1491 279.5294 0000697  73.2612 224.4214 15.88550414  3154
STARLINK-32022          
1 60149U 24120Q   24191.58334491 -.00936942  00000+0 -36372-2 0  9990
2 60149  53.1490 279.5260 0000767  66.8512 232.3585 15.88579959  3167
STARLINK-32014          
1 60150U 24120R   24191.58334491 -.00942096  00000+0 -36548-2 0  9994
2 60150  53.1491 279.5215 0000676  80.3952 221.0908 15.88605661  2992
STARLINK-32004          
1 60151U 24120S   24191.58334491 -.00952910  00000+0 -36931-2 0  9997
2 60151  53.1489 279.5104 0000870  74.3672 232.4485 15.88648274  3168
STARLINK-32147          
1 60152U 24120T   24191.58334491 -.00947475  00000+0 -36740-2 0  9996
2 60152  53.1492 279.5158 0000823  71.5458 232.7247 15.88625653  3009
STARLINK-32131          
1 60153U 24120U   24191.58334491 -.00956468  00000+0 -36995-2 0  9991
2 60153  53.1490 279.5011 0000930  70.4568 240.8022 15.88695325  3155
STARLINK-32145          
1 60154U 24120V   24191.58334491 -.00956308  00000+0 -37021-2 0  9996
2 60154  53.1491 279.5058 0001403  80.6299 228.3677 15.88673061  3035
STARLINK-32137          
1 60155U 24120W   24191.58334491 -.00963703  00000+0 -37256-2 0  9994
2 60155  53.1491 279.4958 0001280  85.1636 228.6221 15.88718487  3009
STARLINK-32048          
1 60156U 24120X   24191.58334491 -.00967749  00000+0 -37376-2 0  9992
2 60156  53.1490 279.4915 0001380  77.5197 238.2414 15.88745978  2993
STARLINK-32129          
1 60157U 24120Y   24191.58334491 -.00969897  00000+0 -37425-2 0  9994
2 60157  53.1490 279.4870 0001231  86.8953 231.0231 15.88770359  3150
ZHONGXING-3A            
1 60179U 24122A   24190.78658720 -.00000315  00000+0  00000+0 0  9991
2 60179   0.0605 232.2010 0001496  88.6205 351.1580  1.00271757   211
CZ-7A R/B               
1 60180U 24122B   24190.77701514  .00431840  95434-6  27106-2 0  9993
2 60180  15.5101 114.1850 7184820 186.2518 153.7228  2.46169146   222
ALOS-4 (DAICHI-4)       
1 60182U 24123A   24190.24555362  .00000936  00000+0  11344-3 0  9990
2 60182  97.8747 286.6336 0002754 104.3747 255.7774 14.85968381  1055
2024-125A               
1 60203U 24125A   24190.56946133  .00010916  00000+0  51667-3 0  9992
2 60203  97.3213  43.3332 0025925 245.7203 167.8006 15.19219263   672
2024-125B               
1 60204U 24125B   24190.56452311  .00019288  00000+0  86635-3 0  9997
2 60204  97.3223  43.3417 0021463 231.7148 181.9989 15.20989274   668
2024-125C               
1 60205U 24125C   24190.56566853  .00012911  00000+0  58868-3 0  9998
2 60205  97.3217  43.3389 0021360 237.6174 176.1545 15.20564316   660
2024-125D               
1 60206U 24125D   24190.56883171  .00008496  00000+0  39578-3 0  9994
2 60206  97.3220  43.3375 0025651 238.4011 181.7072 15.19848381   668
2024-125E               
1 60207U 24125E   24190.57022269  .00008565  00000+0  40054-3 0  9997
2 60207  97.3220  43.3377 0025917 239.8777 185.5939 15.19705879   668
2024-125F               
1 60208U 24125F   24190.57167409  .00009093  00000+0  42753-3 0  9999
2 60208  97.3219  43.3380 0026083 241.2175 188.9188 15.19499130   679
2024-125G               
1 60209U 24125G   24190.56980029  .00010442  00000+0  49625-3 0  9995
2 60209  97.3214  43.3326 0025220 247.3842 166.3046 15.19109044   669
2024-125H               
1 60210U 24125H   24190.61607706  .00008108  00000+0  30231-3 0  9990
2 60210  97.3131  44.6467 0050243 238.0504 185.4372 15.26490133   668
2024-126A               
1 60211U 24126A   24190.63143428  .00008880  00000+0  10061-2 0  9995
2 60211  97.8245 197.0522 0002450 162.2595 198.3978 14.86615445   553
2024-126B               
1 60212U 24126B   24190.63089480  .00007305  00000+0  82491-3 0  9991
2 60212  97.8262 197.0540 0001241 182.6349 177.9193 14.86818523   557
2024-126C               
1 60213U 24126C   24190.62975443 -.00006801  00000+0 -75070-3 0  9991
2 60213  97.8257 197.0554 0000840 297.3691  62.8413 14.87206601   540
2024-126D               
1 60214U 24126D   24191.58443596  .00004820  00000+0  32147-3 0  9992
2 60214  97.8168 198.1189 0081012  13.6128 346.7256 15.04860229   644
NOAA 1                  
1 04793U 70106A   24191.60354069 -.00000021  00000+0  14013-3 0  9992
2 04793 101.4445 242.9810 0031018 293.3226 192.5829 12.54029477451995
NOAA 2 (ITOS-D)         
1 06235U 72082A   24191.60661618 -.00000023  00000+0  14698-3 0  9992
2 06235 102.0149 190.8369 0004524  79.3643  33.6304 12.53182221366313
NOAA 3                  
1 06920U 73086A   24191.63760597 -.00000039  00000+0  50575-4 0  9999
2 06920 102.2757 187.8225 0006508 348.8060 131.3898 12.40368343294174
NOAA 4                  
1 07529U 74089A   24191.58339728 -.00000033  00000+0  85029-4 0  9997
2 07529 101.9873 186.0511 0009423 104.6380   8.8223 12.53181450270884
NOAA 5                  
1 09057U 76077A   24191.51514646 -.00000021  00000+0  19170-3 0  9991
2 09057 102.2078 164.9036 0009389 192.3484 281.1247 12.37801864166910
TIROS N                 
1 11060U 78096A   24191.56328248  .00000249  00000+0  13988-3 0  9999
2 11060  98.5306 231.1202 0011497 127.7895 232.4324 14.18844689578624
NOAA 6                  
1 11416U 79057A   24191.57177857  .00000445  00000+0  17332-3 0  9996
2 11416  98.6277 212.7673 0009921 187.4417 172.6622 14.34564771349469
NOAA 7                  
1 12553U 81059A   24191.42636224  .00000088  00000+0  65606-4 0  9997
2 12553  98.8923 250.7697 0012339 128.2266 232.0021 14.17540700224465
NOAA 8                  
1 13923U 83022A   24191.61555426  .00000216  00000+0  10227-3 0  9997
2 13923  98.7298 191.6189 0015204 163.4137 196.7545 14.29271457149974
NOAA 9                  
1 15427U 84123A   24191.57255514  .00000177  00000+0  11211-3 0  9991
2 15427  99.1180 189.5582 0014504 189.1066 282.2411 14.16616030 43210
NOAA 10                 
1 16969U 86073A   24191.55762951  .00000202  00000+0  98060-4 0  9992
2 16969  98.6413 177.2809 0010908 266.7805 203.4277 14.28644131968349
